IRIDIUM 159             
1 43578U 18061K   24054.51877329  .00000391  00000+0  13248-3 0  9993
2 43578  86.3947  49.6943 0002457  85.3850 274.7626 14.34210380292315
IRIDIUM 180             
1 43922U 19002A   24054.51827423  .00000414  00000+0  14078-3 0  9990
2 43922  86.4023 346.6018 0002242  84.4010 275.7442 14.34217035267927
IRIDIUM 176             
1 43923U 19002B   24054.52433312  .00001760  00000+0  27515-3 0  9997
2 43923  86.6152 346.6276 0002608  89.6864 270.4652 14.72255443274974
IRIDIUM 168             
1 43924U 19002C   24054.51193155 -.00000087  00000+0 -38163-4 0  9990
2 43924  86.4021 346.6578 0002123  82.0192 278.1244 14.34217450267907
IRIDIUM 173             
1 43925U 19002D   24054.28992771  .00000415  00000+0  14126-3 0  9991
2 43925  86.4023 346.6739 0002134  81.7433 278.4005 14.34222682267850
IRIDIUM 169             
1 43926U 19002E   24054.42788151  .00000503  00000+0  15782-3 0  9990
2 43926  86.4254  18.2061 0000804 186.6295 173.4893 14.38600126268778
IRIDIUM 172             
1 43927U 19002F   24054.56267346  .00000237  00000+0  77394-4 0  9996
2 43927  86.4022 346.5654 0002281  84.8912 275.2544 14.34218011267905
IRIDIUM 175             
1 43928U 19002G   24054.24657325  .00000248  00000+0  35290-4 0  9993
2 43928  86.1545 326.3950 0002348  86.1670 273.9815 14.72240453274921
